IRIDIUM 39              
1 25042U 97069D   25208.58989964  .00000601  00000+0  15188-3 0  9991
2 25042  86.3934 193.8165 0018242 164.8185 195.3571 14.49255497454814
IRIDIUM 38              
1 25043U 97069E   25208.52465253  .00000390  00000+0  12216-3 0  9990
2 25043  86.3949 216.1871 0002015  35.8120 324.3213 14.38142313451758
IRIDIUM 42              
1 25077U 97077A   25208.58040378  .00000347  00000+0  11197-3 0  9998
2 25077  86.3946 222.3815 0002199  70.0549 290.0884 14.36375523446990
IRIDIUM 44              
1 25078U 97077B   25208.49532972  .00000392  00000+0  11773-3 0  9995
2 25078  86.3966 204.2432 0000614 133.5703 226.5547 14.40265602449505
IRIDIUM 45              
1 25104U 97082A   25208.53386970  .00021217  00000+0  73833-3 0  9995
2 25104  86.3568  28.2755 0114297 179.3320 180.8101 15.23445457458183
IRIDIUM 24              
1 25105U 97082B   25208.62464014  .00000418  00000+0  12105-3 0  9997
2 25105  86.3868  63.1411 0009759 312.4088  47.6286 14.42128243449041
IRIDIUM 51              
1 25262U 98018A   25208.55768238  .00038921  00000+0  79559-3 0  9994
2 25262  86.3800  35.8005 0084261  94.7382 266.3502 15.42128463453247
IRIDIUM 57              
1 25273U 98019B   25208.52054815  .00000346  00000+0  11255-3 0  9992
2 25273  86.3987 128.3707 0002151  84.1068 276.0374 14.35915037430572
